{"type": "FeatureCollection", "features": [ {"type": "Feature", "properties": {"norad_id": 37084, "name": "COSMOS 2251 DEB", "group": "cosmos-2251-debris", "lat": -71.93663410927488, "lon": 106.97376285298776, "alt_km": 511.3256509383127, "timestamp": "2025-12-09T07:41:33.609203+00:00", "meta": {"OBJECT_NAME": "COSMOS 2251 DEB", "OBJECT_ID": "1993-036BFE", "EPOCH": "2025-12-08T19:15:18.077184", "MEAN_MOTION": 15.00891112, "ECCENTRICITY": 0.00979748, "INCLINATION": 74.0259, "RA_OF_ASC_NODE": 169.4673, "ARG_OF_PERICENTER": 250.8811, "MEAN_ANOMALY": 108.175, "EPHEMERIS_TYPE": 0, "CLASSIFICATION_TYPE": "U", "NORAD_CAT_ID": 37084, "ELEMENT_SET_NO": 999, "REV_AT_EPOCH": 66208, "BSTAR": 0.00080064992, "MEAN_MOTION_DOT": 0.00011267, "MEAN_MOTION_DDOT": 0}, "tle": {"line1": "1 37084U 93036BFE 25342.80229256  .00011267  00000+0  80065-3 0  9991", "line2": "2 37084  74.0259 169.4673 0097974 250.8811 108.1750 15.00891112662080"}}, "geometry": {"type": "Point", "coordinates": [106.97376285298776, -71.93663410927488]}}, {"type": "Feature", "properties": {"norad_id": 37085, "name": "COSMOS 2251 DEB", "group": "cosmos-2251-debris", "lat": -9.981058415320314, "lon": 46.39807971423117, "alt_km": 458.3997686906996, "timestamp": "2025-12-09T07:41:33.609213+00:00", "meta": {"OBJECT_NAME": "COSMOS 2251 DEB", "OBJECT_ID": "1993-036BFF", "EPOCH": "2025-12-02T23:36:37.668384", "MEAN_MOTION": 15.39020756, "ECCENTRICITY": 0.0022856, "INCLINATION": 73.9503, "RA_OF_ASC_NODE": 237.2473, "ARG_OF_PERICENTER": 76.375, "MEAN_ANOMALY": 284, "EPHEMERIS_TYPE": 0, "CLASSIFICATION_TYPE": "U", "NORAD_CAT_ID": 37085, "ELEMENT_SET_NO": 999, "REV_AT_EPOCH": 66987, "BSTAR": 0.0028642077, "MEAN_MOTION_DOT": 0.00113322, "MEAN_MOTION_DDOT": 0}, "tle": {"line1": "1 37085U 93036BFF 25336.98376931  .00113322  00000+0  28642-2 0  9994", "line2": "2 37085  73.9503 237.2473 0022856  76.3750 284.0000 15.39020756669879"}}, "geometry": {"type": "Point", "coordinates": [46.39807971423117, -9.981058415320314]}}, {"type": "Feature", "properties": {"norad_id": 37089, "name": "COSMOS 2251 DEB", "group": "cosmos-2251-debris", "lat": -19.453749249750846, "lon": 146.3955947113394, "alt_km": 714.4878659684991, "timestamp": "2025-12-09T07:41:33.609236+00:00", "meta": {"OBJECT_NAME": "COSMOS 2251 DEB", "OBJECT_ID": "1993-036BFK", "EPOCH": "2025-12-08T05:20:37.786848", "MEAN_MOTION": 14.52807892, "ECCENTRICITY": 0.01353256, "INCLINATION": 74.0364, "RA_OF_ASC_NODE": 154.2692, "ARG_OF_PERICENTER": 255.408, "MEAN_ANOMALY": 103.2044, "EPHEMERIS_TYPE": 0, "CLASSIFICATION_TYPE": "U", "NORAD_CAT_ID": 37089, "ELEMENT_SET_NO": 999, "REV_AT_EPOCH": 66044, "BSTAR": 0.0030256992, "MEAN_MOTION_DOT": 0.00014025, "MEAN_MOTION_DDOT": 0}, "tle": {"line1": "1 37089U 93036BFK 25342.22265957  .00014025  00000+0  30257-2 0  9992", "line2": "2 37089  74.0364 154.2692 0135325 255.4080 103.2044 14.52807892660445"}}, "geometry": {"type": "Point", "coordinates": [146.3955947113394, -19.453749249750846]}}, {"type": "Feature", "properties": {"norad_id": 37094, "name": "COSMOS 2251 DEB", "group": "cosmos-2251-debris", "lat": -65.29641499195124, "lon": 89.16774067272907, "alt_km": 830.7692063701297, "timestamp": "2025-12-09T07:41:33.609248+00:00", "meta": {"OBJECT_NAME": "COSMOS 2251 DEB", "OBJECT_ID": "1993-036BFQ", "EPOCH": "2025-12-06T16:34:06.652128", "MEAN_MOTION": 14.37775632, "ECCENTRICITY": 0.00842027, "INCLINATION": 74.1085, "RA_OF_ASC_NODE": 132.2507, "ARG_OF_PERICENTER": 99.9483, "MEAN_ANOMALY": 261.1188, "EPHEMERIS_TYPE": 0, "CLASSIFICATION_TYPE": "U", "NORAD_CAT_ID": 37094, "ELEMENT_SET_NO": 999, "REV_AT_EPOCH": 84419, "BSTAR": 0.0017371356, "MEAN_MOTION_DOT": 5.428e-05, "MEAN_MOTION_DDOT": 0}, "tle": {"line1": "1 37094U 93036BFQ 25340.69035477  .00005428  00000+0  17371-2 0  9998", "line2": "2 37094  74.1085 132.2507 0084202  99.9483 261.1188 14.37775632844196"}}, "geometry": {"type": "Point", "coordinates": [89.16774067272907, -65.29641499195124]}}, {"type": "Feature", "properties": {"norad_id": 37095, "name": "COSMOS 2251 DEB", "group": "cosmos-2251-debris", "lat": -69.68391777937896, "lon": 144.41996595911445, "alt_km": 763.4677335287715, "timestamp": "2025-12-09T07:41:33.609259+00:00", "meta": {"OBJECT_NAME": "COSMOS 2251 DEB", "OBJECT_ID": "1993-036BFR", "EPOCH": "2025-12-05T08:14:56.192352", "MEAN_MOTION": 14.03341959, "ECCENTRICITY": 0.01953957, "INCLINATION": 73.8477, "RA_OF_ASC_NODE": 202.9366, "ARG_OF_PERICENTER": 261.9904, "MEAN_ANOMALY": 95.9019, "EPHEMERIS_TYPE": 0, "CLASSIFICATION_TYPE": "U", "NORAD_CAT_ID": 37095, "ELEMENT_SET_NO": 999, "REV_AT_EPOCH": 62532, "BSTAR": 0.0025687664, "MEAN_MOTION_DOT": 4.727e-05, "MEAN_MOTION_DDOT": 0}, "tle": {"line1": "1 37095U 93036BFR 25339.34370593  .00004727  00000+0  25688-2 0  9991", "line2": "2 37095  73.8477 202.9366 0195395 261.9904  95.9019 14.03341959625323"}}, "geometry": {"type": "Point", "coordinates": [144.41996595911445, -69.68391777937896]}}, {"type": "Feature", "properties": {"norad_id": 37108, "name": "COSMOS 2251 DEB", "group": "cosmos-2251-debris", "lat": -37.521930724969785, "lon": -80.41725337823445, "alt_km": 722.3424086166333, "timestamp": "2025-12-09T07:41:33.609270+00:00", "meta": {"OBJECT_NAME": "COSMOS 2251 DEB", "OBJECT_ID": "1993-036BGE", "EPOCH": "2025-12-08T17:21:24.429024", "MEAN_MOTION": 14.41240168, "ECCENTRICITY": 0.00918255, "INCLINATION": 74.0439, "RA_OF_ASC_NODE": 87.996, "ARG_OF_PERICENTER": 165.5632, "MEAN_ANOMALY": 194.8181, "EPHEMERIS_TYPE": 0, "CLASSIFICATION_TYPE": "U", "NORAD_CAT_ID": 37108, "ELEMENT_SET_NO": 999, "REV_AT_EPOCH": 85449, "BSTAR": 0.002465693, "MEAN_MOTION_DOT": 8.357e-05, "MEAN_MOTION_DDOT": 0}, "tle": {"line1": "1 37108U 93036BGE 25342.72319941  .00008357  00000+0  24657-2 0  9990", "line2": "2 37108  74.0439  87.9960 0091825 165.5632 194.8181 14.41240168854493"}}, "geometry": {"type": "Point", "coordinates": [-80.41725337823445, -37.521930724969785]}}, {"type": "Feature", "properties": {"norad_id": 37126, "name": "COSMOS 2251 DEB", "group": "cosmos-2251-debris", "lat": 73.34833644592321, "lon": 75.46567482379501, "alt_km": 722.0754896971075, "timestamp": "2025-12-09T07:41:33.609281+00:00", "meta": {"OBJECT_NAME": "COSMOS 2251 DEB", "OBJECT_ID": "1993-036BGY", "EPOCH": "2025-12-07T08:01:44.004576", "MEAN_MOTION": 14.73044037, "ECCENTRICITY": 0.01233958, "INCLINATION": 73.952, "RA_OF_ASC_NODE": 5.1188, "ARG_OF_PERICENTER": 244.4647, "MEAN_ANOMALY": 114.3726, "EPHEMERIS_TYPE": 0, "CLASSIFICATION_TYPE": "U", "NORAD_CAT_ID": 37126, "ELEMENT_SET_NO": 999, "REV_AT_EPOCH": 8019, "BSTAR": 0.00045541801, "MEAN_MOTION_DOT": 3.268e-05, "MEAN_MOTION_DDOT": 0}, "tle": {"line1": "1 37126U 93036BGY 25341.33453709  .00003268  00000+0  45542-3 0  9990", "line2": "2 37126  73.9520   5.1188 0123395 244.4647 114.3726 14.73044037 80199"}}, "geometry": {"type": "Point", "coordinates": [75.46567482379501, 73.34833644592321]}}, {"type": "Feature", "properties": {"norad_id": 37132, "name": "COSMOS 2251 DEB", "group": "cosmos-2251-debris", "lat": 72.03289319390525, "lon": -57.02219268392477, "alt_km": 609.0677299563176, "timestamp": "2025-12-09T07:41:33.609291+00:00", "meta": {"OBJECT_NAME": "COSMOS 2251 DEB", "OBJECT_ID": "1993-036BHE", "EPOCH": "2025-12-07T11:27:27.762624", "MEAN_MOTION": 14.77705967, "ECCENTRICITY": 0.0039737, "INCLINATION": 74.0029, "RA_OF_ASC_NODE": 244.3909, "ARG_OF_PERICENTER": 41.7313, "MEAN_ANOMALY": 318.688, "EPHEMERIS_TYPE": 0, "CLASSIFICATION_TYPE": "U", "NORAD_CAT_ID": 37132, "ELEMENT_SET_NO": 999, "REV_AT_EPOCH": 62338, "BSTAR": 0.0017835716, "MEAN_MOTION_DOT": 0.00012942, "MEAN_MOTION_DDOT": 0}, "tle": {"line1": "1 37132U 93036BHE 25341.47740466  .00012942  00000+0  17836-2 0  9994", "line2": "2 37132  74.0029 244.3909 0039737  41.7313 318.6880 14.77705967623388"}}, "geometry": {"type": "Point", "coordinates": [-57.02219268392477, 72.03289319390525]}}, {"type": "Feature", "properties": {"norad_id": 37270, "name": "COSMOS 2251 DEB", "group": "cosmos-2251-debris", "lat": -60.00495884348023, "lon": -168.58191193820173, "alt_km": 1132.330515360155, "timestamp": "2025-12-09T07:41:33.609302+00:00", "meta": {"OBJECT_NAME": "COSMOS 2251 DEB", "OBJECT_ID": "1993-036BHJ", "EPOCH": "2025-12-06T23:44:09.019392", "MEAN_MOTION": 13.59708116, "ECCENTRICITY": 0.03977945, "INCLINATION": 73.9304, "RA_OF_ASC_NODE": 345.2655, "ARG_OF_PERICENTER": 358.2371, "MEAN_ANOMALY": 1.731, "EPHEMERIS_TYPE": 0, "CLASSIFICATION_TYPE": "U", "NORAD_CAT_ID": 37270, "ELEMENT_SET_NO": 999, "REV_AT_EPOCH": 76991, "BSTAR": 0.0060698053, "MEAN_MOTION_DOT": 7.585e-05, "MEAN_MOTION_DDOT": 0}, "tle": {"line1": "1 37270U 93036BHJ 25340.98899328  .00007585  00000+0  60698-2 0  9995", "line2": "2 37270  73.9304 345.2655 0397794 358.2371   1.7310 13.59708116769910"}}, "geometry": {"type": "Point", "coordinates": [-168.58191193820173, -60.00495884348023]}}, {"type": "Feature", "properties": {"norad_id": 37278, "name": "COSMOS 2251 DEB", "group": "cosmos-2251-debris", "lat": -42.86922920594601, "lon": -20.196656117910837, "alt_km": 1001.9693431081932, "timestamp": "2025-12-09T07:41:33.609313+00:00", "meta": {"OBJECT_NAME": "COSMOS 2251 DEB", "OBJECT_ID": "1993-036BHS", "EPOCH": "2025-12-04T09:26:36.152736", "MEAN_MOTION": 14.15029915, "ECCENTRICITY": 0.029998, "INCLINATION": 73.7864, "RA_OF_ASC_NODE": 4.3592, "ARG_OF_PERICENTER": 188.2556, "MEAN_ANOMALY": 234.4903, "EPHEMERIS_TYPE": 0, "CLASSIFICATION_TYPE": "U", "NORAD_CAT_ID": 37278, "ELEMENT_SET_NO": 999, "REV_AT_EPOCH": 63711, "BSTAR": 0.0023061, "MEAN_MOTION_DOT": 6.884e-05, "MEAN_MOTION_DDOT": 0}, "tle": {"line1": "1 37278U 93036BHS 25338.39347399  .00006884  00000+0  23061-2 0  9995", "line2": "2 37278  73.7864   4.3592 0299980 188.2556 234.4903 14.15029915637119"}}, "geometry": {"type": "Point", "coordinates": [-20.196656117910837, -42.86922920594601]}}]}